{
  "type": "FeatureCollection",
  "features": [
    {
      "type": "Feature",
      "properties": {
        "norad_id": 34478,
        "name": "COSMOS 2251 DEB",
        "group": "cosmos-2251-debris",
        "lat": -27.468989402765438,
        "lon": 0.5457775923732586,
        "alt_km": 552.7928658136507,
        "timestamp": "2025-12-11T15:53:39.938300+00:00",
        "meta_object_name": "COSMOS 2251 DEB",
        "meta_object_id": "1993-036TX",
        "meta_epoch": "2025-12-11T03:35:25.078848",
        "meta_mean_motion": 15.07789124,
        "meta_eccentricity": 0.00351331,
        "meta_inclination": 74.04,
        "meta_ra_of_asc_node": 10.1561,
        "meta_arg_of_pericenter": 231.5955,
        "meta_mean_anomaly": 197.7773,
        "meta_ephemeris_type": 0,
        "meta_classification_type": "U",
        "meta_norad_cat_id": 34478,
        "meta_element_set_no": 999,
        "meta_rev_at_epoch": 88949,
        "meta_bstar": 0.004125654,
        "meta_mean_motion_dot": 0.00064556,
        "meta_mean_motion_ddot": 0,
        "tle_line1": "1 34478U 93036TX  25345.14959582  .00064556  00000+0  41257-2 0  9995",
        "tle_line2": "2 34478  74.0400  10.1561 0035133 231.5955 197.7773 15.07789124889495"
      },
      "geometry": {
        "type": "Point",
        "coordinates": [
          0.5457775923732586,
          -27.468989402765438
        ]
      }
    },
    {
      "type": "Feature",
      "properties": {
        "norad_id": 34481,
        "name": "COSMOS 2251 DEB",
        "group": "cosmos-2251-debris",
        "lat": -36.532456457199096,
        "lon": -112.27993965872386,
        "alt_km": 739.5756586254383,
        "timestamp": "2025-12-11T15:53:39.938310+00:00",
        "meta_object_name": "COSMOS 2251 DEB",
        "meta_object_id": "1993-036UA",
        "meta_epoch": "2025-12-11T06:49:40.801728",
        "meta_mean_motion": 14.32543525,
        "meta_eccentricity": 0.00707583,
        "meta_inclination": 73.9803,
        "meta_ra_of_asc_node": 56.1227,
        "meta_arg_of_pericenter": 230.7254,
        "meta_mean_anomaly": 200.1808,
        "meta_ephemeris_type": 0,
        "meta_classification_type": "U",
        "meta_norad_cat_id": 34481,
        "meta_element_set_no": 999,
        "meta_rev_at_epoch": 87428,
        "meta_bstar": 0.001209715,
        "meta_mean_motion_dot": 3.348e-05,
        "meta_mean_motion_ddot": 0,
        "tle_line1": "1 34481U 93036UA  25345.28450002  .00003348  00000+0  12097-2 0  9999",
        "tle_line2": "2 34481  73.9803  56.1227 0070758 230.7254 200.1808 14.32543525874287"
      },
      "geometry": {
        "type": "Point",
        "coordinates": [
          -112.27993965872386,
          -36.532456457199096
        ]
      }
    },
    {
      "type": "Feature",
      "properties": {
        "norad_id": 34482,
        "name": "COSMOS 2251 DEB",
        "group": "cosmos-2251-debris",
        "lat": -61.86394383729288,
        "lon": 78.04143284598001,
        "alt_km": 645.9975390404734,
        "timestamp": "2025-12-11T15:53:39.938320+00:00",
        "meta_object_name": "COSMOS 2251 DEB",
        "meta_object_id": "1993-036UB",
        "meta_epoch": "2025-12-11T02:23:14.699616",
        "meta_mean_motion": 14.69125321,
        "meta_eccentricity": 0.00451191,
        "meta_inclination": 74.0368,
        "meta_ra_of_asc_node": 226.7683,
        "meta_arg_of_pericenter": 287.0577,
        "meta_mean_anomaly": 224.4358,
        "meta_ephemeris_type": 0,
        "meta_classification_type": "U",
        "meta_norad_cat_id": 34482,
        "meta_element_set_no": 999,
        "meta_rev_at_epoch": 88163,
        "meta_bstar": 0.0028405288,
        "meta_mean_motion_dot": 0.00016972,
        "meta_mean_motion_ddot": 0,
        "tle_line1": "1 34482U 93036UB  25345.09947569  .00016972  00000+0  28405-2 0  9995",
        "tle_line2": "2 34482  74.0368 226.7683 0045119 287.0577 224.4358 14.69125321881639"
      },
      "geometry": {
        "type": "Point",
        "coordinates": [
          78.04143284598001,
          -61.86394383729288
        ]
      }
    },
    {
      "type": "Feature",
      "properties": {
        "norad_id": 34544,
        "name": "COSMOS 2251 DEB",
        "group": "cosmos-2251-debris",
        "lat": -33.25344379987994,
        "lon": 36.67994409160813,
        "alt_km": 790.7583395323763,
        "timestamp": "2025-12-11T15:53:39.938331+00:00",
        "meta_object_name": "COSMOS 2251 DEB",
        "meta_object_id": "1993-036UE",
        "meta_epoch": "2025-12-10T23:12:13.179744",
        "meta_mean_motion": 13.54661255,
        "meta_eccentricity": 0.0384245,
        "meta_inclination": 73.9145,
        "meta_ra_of_asc_node": 206.8996,
        "meta_arg_of_pericenter": 235.6686,
        "meta_mean_anomaly": 190.1829,
        "meta_ephemeris_type": 0,
        "meta_classification_type": "U",
        "meta_norad_cat_id": 34544,
        "meta_element_set_no": 999,
        "meta_rev_at_epoch": 82858,
        "meta_bstar": 0.00034892,
        "meta_mean_motion_dot": 3.59e-06,
        "meta_mean_motion_ddot": 0,
        "tle_line1": "1 34544U 93036UE  25344.96681921  .00000359  00000+0  34892-3 0  9996",
        "tle_line2": "2 34544  73.9145 206.8996 0384245 235.6686 190.1829 13.54661255828582"
      },
      "geometry": {
        "type": "Point",
        "coordinates": [
          36.67994409160813,
          -33.25344379987994
        ]
      }
    },
    {
      "type": "Feature",
      "properties": {
        "norad_id": 34546,
        "name": "COSMOS 2251 DEB",
        "group": "cosmos-2251-debris",
        "lat": 5.96319172620881,
        "lon": 69.48153289905137,
        "alt_km": 756.1739861778524,
        "timestamp": "2025-12-11T15:53:39.938341+00:00",
        "meta_object_name": "COSMOS 2251 DEB",
        "meta_object_id": "1993-036UG",
        "meta_epoch": "2025-12-10T21:21:56.474208",
        "meta_mean_motion": 14.45398317,
        "meta_eccentricity": 0.00219,
        "meta_inclination": 74.031,
        "meta_ra_of_asc_node": 252.6344,
        "meta_arg_of_pericenter": 326.5592,
        "meta_mean_anomaly": 151.6542,
        "meta_ephemeris_type": 0,
        "meta_classification_type": "U",
        "meta_norad_cat_id": 34546,
        "meta_element_set_no": 999,
        "meta_rev_at_epoch": 87999,
        "meta_bstar": 0.0010002,
        "meta_mean_motion_dot": 3.504e-05,
        "meta_mean_motion_ddot": 0,
        "tle_line1": "1 34546U 93036UG  25344.89023697  .00003504  00000+0  10002-2 0  9991",
        "tle_line2": "2 34546  74.0310 252.6344 0021900 326.5592 151.6542 14.45398317879990"
      },
      "geometry": {
        "type": "Point",
        "coordinates": [
          69.48153289905137,
          5.96319172620881
        ]
      }
    },
    {
      "type": "Feature",
      "properties": {
        "norad_id": 34547,
        "name": "COSMOS 2251 DEB",
        "group": "cosmos-2251-debris",
        "lat": -70.28705748917473,
        "lon": -24.12155642560601,
        "alt_km": 657.6530706038247,
        "timestamp": "2025-12-11T15:53:39.938352+00:00",
        "meta_object_name": "COSMOS 2251 DEB",
        "meta_object_id": "1993-036UH",
        "meta_epoch": "2025-12-10T09:22:16.076640",
        "meta_mean_motion": 14.72244082,
        "meta_eccentricity": 0.001775,
        "meta_inclination": 74.0302,
        "meta_ra_of_asc_node": 105.2971,
        "meta_arg_of_pericenter": 184.9707,
        "meta_mean_anomaly": 175.1292,
        "meta_ephemeris_type": 0,
        "meta_classification_type": "U",
        "meta_norad_cat_id": 34547,
        "meta_element_set_no": 999,
        "meta_rev_at_epoch": 88487,
        "meta_bstar": 0.0032528696,
        "meta_mean_motion_dot": 0.00020618,
        "meta_mean_motion_ddot": 0,
        "tle_line1": "1 34547U 93036UH  25344.39046385  .00020618  00000+0  32529-2 0  9999",
        "tle_line2": "2 34547  74.0302 105.2971 0017750 184.9707 175.1292 14.72244082884878"
      },
      "geometry": {
        "type": "Point",
        "coordinates": [
          -24.12155642560601,
          -70.28705748917473
        ]
      }
    },
    {
      "type": "Feature",
      "properties": {
        "norad_id": 34553,
        "name": "COSMOS 2251 DEB",
        "group": "cosmos-2251-debris",
        "lat": -29.742499446864592,
        "lon": 23.3620791627982,
        "alt_km": 699.3680238534116,
        "timestamp": "2025-12-11T15:53:39.938362+00:00",
        "meta_object_name": "COSMOS 2251 DEB",
        "meta_object_id": "1993-036UP",
        "meta_epoch": "2025-12-11T00:47:41.290656",
        "meta_mean_motion": 14.57695611,
        "meta_eccentricity": 0.00193834,
        "meta_inclination": 74.0246,
        "meta_ra_of_asc_node": 195.1379,
        "meta_arg_of_pericenter": 272.6509,
        "meta_mean_anomaly": 238.2498,
        "meta_ephemeris_type": 0,
        "meta_classification_type": "U",
        "meta_norad_cat_id": 34553,
        "meta_element_set_no": 999,
        "meta_rev_at_epoch": 88071,
        "meta_bstar": 0.0015950679,
        "meta_mean_motion_dot": 7.277e-05,
        "meta_mean_motion_ddot": 0,
        "tle_line1": "1 34553U 93036UP  25345.03311679  .00007277  00000+0  15951-2 0  9995",
        "tle_line2": "2 34553  74.0246 195.1379 0019383 272.6509 238.2498 14.57695611880710"
      },
      "geometry": {
        "type": "Point",
        "coordinates": [
          23.3620791627982,
          -29.742499446864592
        ]
      }
    }
  ]
}